NORAD_CAT_ID,OBJECT_NAME,OBJECT_TYPE,EPOCH,MEAN_MOTION,ECCENTRICITY,INCLINATION,RA_OF_ASC_NODE,ARG_OF_PERICENTER,MEAN_ANOMALY,BSTAR,MEAN_MOTION_DOT,MEAN_MOTION_DDOT,TLE_LINE0,TLE_LINE1,TLE_LINE2,SEMIMAJOR_AXIS,PERIOD,APOGEE,PERIGEE,DECAYED
56778.0,STARLINK-6304,PAYLOAD,2023-10-31 11:30:31,15.69909316,0.0002602,69.9985,342.5592,272.6101,87.4797,1.0258e-05,1.02e-05,0.0,0 STARLINK-6304,1 56778U 23078M   23304.47953258  .00001020  00000-0  10258-4 0  9991,2 56778  69.9985 342.5592 0002602 272.6101  87.4797 15.69909316 24355,6737.293,91.725,360.911,357.405,0.0
56778.0,STARLINK-6304,PAYLOAD,2023-11-01 04:19:46,15.69926441,0.0003169,69.9971,340.5871,270.347,89.7362,1.3266e-05,1.383e-05,0.0,0 STARLINK-6304,1 56778U 23078M   23305.18040337  .00001383  00000-0  13266-4 0  9999,2 56778  69.9971 340.5871 0003169 270.3470  89.7362 15.69926441 24464,6737.244,91.724,361.244,356.974,0.0
56778.0,STARLINK-6304,PAYLOAD,2023-11-01 11:58:33,15.69912466,0.0003291,69.9996,339.6928,275.6119,84.4701,3.4037e-06,1.96e-06,0.0,0 STARLINK-6304,1 56778U 23078M   23305.49899824  .00000196  00000-0  34037-5 0  9997,2 56778  69.9996 339.6928 0003291 275.6119  84.4701 15.69912466 24514,6737.284,91.725,361.367,356.932,0.0
56778.0,STARLINK-6304,PAYLOAD,2023-11-01 19:37:18,15.69930568,0.0002903,69.9995,338.7962,274.0167,86.0697,1.0305e-05,1.027e-05,0.0,0 STARLINK-6304,1 56778U 23078M   23305.81757066  .00001027  00000-0  10305-4 0  9999,2 56778  69.9995 338.7962 0002903 274.0167  86.0697 15.69930568 24566,6737.233,91.724,361.053,357.142,0.0
56778.0,STARLINK-6304,PAYLOAD,2023-11-02 06:00:00,15.69923159,0.0003198,70.0005,337.5798,273.9115,9.4333,6.9365e-05,8.135e-05,0.0,0 STARLINK-6304,1 56778U 23078M   23306.25001157  .00008135  00000-0  69365-4 0  9998,2 56778  70.0005 337.5798 0003198 273.9115   9.4333 15.69923159 24635,6737.254,91.724,361.273,356.964,0.0
56778.0,STARLINK-6304,PAYLOAD,2023-11-02 14:00:01,15.6995236,0.0003204,70.0001,336.6424,281.1605,85.5201,-0.00036652,-0.00044103,0.0,0 STARLINK-6304,1 56778U 23078M   23306.58334491 -.00044103  00000-0 -36652-3 0  9993,2 56778  70.0001 336.6424 0003204 281.1605  85.5201 15.69952360  6062,6737.17,91.723,361.194,356.877,0.0
56778.0,STARLINK-6304,PAYLOAD,2023-11-02 22:00:01,15.69856148,0.000313,70.0005,335.7051,273.8361,176.2725,0.00099367,0.00120656,0.0,0 STARLINK-6304,1 56778U 23078M   23306.91668981  .00120656  00000-0  99367-3 0  9992,2 56778  70.0005 335.7051 0003130 273.8361 176.2725 15.69856148  5994,6737.446,91.728,361.419,357.202,0.0
56778.0,STARLINK-6304,PAYLOAD,2023-11-03 11:22:54,15.69890279,0.0002062,69.9991,334.1387,284.8106,75.2862,-2.1769e-05,-2.824e-05,0.0,0 STARLINK-6304,1 56778U 23078M   23307.47423637 -.00002824  00000-0 -21769-4 0  9991,2 56778  69.9991 334.1387 0002062 284.8106  75.2862 15.69890279 24828,6737.348,91.726,360.602,357.824,0.0
56778.0,STARLINK-6304,PAYLOAD,2023-11-03 19:01:38,15.69914272,0.0002473,69.9986,333.2407,276.5315,83.5599,-1.6871e-05,-2.239e-05,0.0,0 STARLINK-6304,1 56778U 23078M   23307.79280512 -.00002239  00000-0 -16871-4 0  9997,2 56778  69.9986 333.2407 0002473 276.5315  83.5599 15.69914272 24875,6737.279,91.725,360.81,357.478,0.0
56778.0,STARLINK-6304,PAYLOAD,2023-11-04 10:19:08,15.69919714,0.0002947,69.9974,331.4488,269.8693,90.2165,5.957e-06,5.04e-06,0.0,0 STARLINK-6304,1 56778U 23078M   23308.42996339  .00000504  00000-0  59570-5 0  9994,2 56778  69.9974 331.4488 0002947 269.8693  90.2165 15.69919714 24972,6737.264,91.724,361.114,357.143,0.0
56778.0,STARLINK-6304,PAYLOAD,2023-11-04 11:50:54,15.69920469,0.0002471,69.9988,331.2712,265.6998,94.3915,6.4697e-06,5.66e-06,0.0,0 STARLINK-6304,1 56778U 23078M   23308.49368073  .00000566  00000-0  64697-5 0  9993,2 56778  69.9988 331.2712 0002471 265.6998  94.3915 15.69920469 24729,6737.262,91.724,360.791,357.462,0.0
56778.0,STARLINK-6304,PAYLOAD,2023-11-05 04:40:11,15.69914997,0.0002392,69.9998,329.3006,255.2533,104.8398,1.4087e-06,-4.3e-07,0.0,0 STARLINK-6304,1 56778U 23078M   23309.19457205 -.00000043  00000-0  14087-5 0  9996,2 56778  69.9998 329.3006 0002392 255.2533 104.8398 15.69914997 25098,6737.277,91.725,360.754,357.531,0.0
56778.0,STARLINK-6304,PAYLOAD,2023-11-05 10:47:09,15.69941481,0.0002606,69.9985,328.5844,264.4499,95.64,2.1851e-05,2.417e-05,0.0,0 STARLINK-6304,1 56778U 23078M   23309.44941768  .00002417  00000-0  21851-4 0  9998,2 56778  69.9985 328.5844 0002606 264.4499  95.6400 15.69941481 25130,6737.201,91.723,360.822,357.311,0.0
56778.0,STARLINK-6304,PAYLOAD,2023-11-05 18:25:56,15.69909644,0.0002038,69.9995,327.6893,275.5656,84.5307,3.6573e-05,4.184e-05,0.0,0 STARLINK-6304,1 56778U 23078M   23309.76801916  .00004184  00000-0  36573-4 0  9993,2 56778  69.9995 327.6893 0002038 275.5656  84.5307 15.69909644 25185,6737.293,91.725,360.531,357.784,0.0
56778.0,STARLINK-6304,PAYLOAD,2023-11-06 03:36:27,15.69922127,0.0004183,69.9988,326.614,285.3198,74.7535,4.7264e-06,3.55e-06,0.0,0 STARLINK-6304,1 56778U 23078M   23310.15031287  .00000355  00000-0  47264-5 0  9990,2 56778  69.9988 326.6140 0004183 285.3198  74.7535 15.69922127 25246,6737.257,91.724,361.94,356.304,0.0
56778.0,STARLINK-6304,PAYLOAD,2023-11-06 11:15:16,15.69864124,0.0003178,69.9987,325.7186,276.1445,83.9388,-6.3031e-05,-7.765e-05,0.0,0 STARLINK-6304,1 56778U 23078M   23310.46894348 -.00007765  00000-0 -63031-4 0  9992,2 56778  69.9987 325.7186 0003178 276.1445  83.9388 15.69864124 25296,6737.423,91.728,361.429,357.147,0.0
56778.0,STARLINK-6304,PAYLOAD,2023-11-07 04:04:29,15.69926296,0.0003277,69.9989,323.7485,265.5632,94.519,8.6209e-06,8.24e-06,0.0,0 STARLINK-6304,1 56778U 23078M   23311.16978576  .00000824  00000-0  86209-5 0  9996,2 56778  69.9989 323.7485 0003277 265.5632  94.5190 15.69926296 25409,6737.245,91.724,361.318,356.902,0.0
56778.0,STARLINK-6304,PAYLOAD,2023-11-07 10:11:28,15.69940675,0.0003431,69.998,323.0316,267.9879,92.0923,2.0775e-05,2.288e-05,0.0,0 STARLINK-6304,1 56778U 23078M   23311.42463938  .00002288  00000-0  20775-4 0  9997,2 56778  69.9980 323.0316 0003431 267.9879  92.0923 15.69940675 25445,6737.204,91.723,361.38,356.757,0.0
56778.0,STARLINK-6304,PAYLOAD,2023-11-07 17:50:15,15.69930637,0.0003131,69.9984,322.1366,276.28,83.8039,-2.8008e-06,-5.49e-06,0.0,0 STARLINK-6304,1 56778U 23078M   23311.74323344 -.00000549  00000-0 -28008-5 0  9996,2 56778  69.9984 322.1366 0003131 276.2800  83.8039 15.69930637 25496,6737.232,91.724,361.207,356.988,0.0
56778.0,STARLINK-6304,PAYLOAD,2023-11-08 03:00:49,15.69859776,0.0002629,70.0001,321.0666,240.915,119.1783,1.619e-05,1.73e-05,0.0,0 STARLINK-6304,1 56778U 23078M   23312.12557315  .00001730  00000-0  16190-4 0  9995,2 56778  70.0001 321.0666 0002629 240.9150 119.1783 15.69859776 25557,6737.435,91.728,361.071,357.529,0.0
56778.0,STARLINK-6304,PAYLOAD,2023-11-08 10:39:35,15.69870699,0.0003315,70.0006,320.1721,247.8713,112.2131,-8.9859e-05,-0.00010979,0.0,0 STARLINK-6304,1 56778U 23078M   23312.44416416 -.00010979  00000-0 -89859-4 0  9995,2 56778  70.0006 320.1721 0003315 247.8713 112.2131 15.69870699 25343,6737.404,91.727,361.502,357.035,0.0
56778.0,STARLINK-6304,PAYLOAD,2023-11-09 09:37:22,15.68641005,0.00026,70.0002,317.4893,110.7909,249.3565,-0.0014946,-0.00167289,0.0,0 STARLINK-6304,1 56778U 23078M   23313.40095513 -.00167289  00000-0 -14946-2 0  9993,2 56778  70.0002 317.4893 0002600 110.7909 249.3565 15.68641005 25753,6740.925,91.799,364.542,361.037,0.0
56778.0,STARLINK-6304,PAYLOAD,2023-11-09 18:00:00,15.68938041,0.0003514,70.0004,316.4948,267.6427,269.857,-0.008787,-0.00924578,0.0,0 STARLINK-6304,1 56778U 23078M   23313.75001157 -.00924578  00000-0 -87870-2 0  9990,2 56778  70.0004 316.4948 0003514 267.6427 269.8570 15.68938041 25805,6740.074,91.782,364.307,359.57,0.0
56778.0,STARLINK-6304,PAYLOAD,2023-11-09 22:00:00,15.6858165,0.00036,70.0003,316.0274,265.2243,133.2562,-0.0082232,-0.00846402,0.0,0 STARLINK-6304,1 56778U 23078M   23313.91667824 -.00846402  00000-0 -82232-2 0  9993,2 56778  70.0003 316.0274 0003600 265.2243 133.2562 15.68581650  6048,6741.095,91.803,365.386,360.533,0.0
56778.0,STARLINK-6304,PAYLOAD,2023-11-10 14:00:01,15.6733282,0.0003319,69.9995,314.159,268.5493,291.8673,-0.0097613,-0.00958158,0.0,0 STARLINK-6304,1 56778U 23078M   23314.58334491 -.00958158  00000-0 -97613-2 0  9999,2 56778  69.9995 314.1590 0003319 268.5493 291.8673 15.67332820  5994,6744.675,91.876,368.778,364.301,0.0
56778.0,STARLINK-6304,PAYLOAD,2023-11-10 20:00:01,15.66782017,0.0003391,69.9996,313.4589,263.664,266.6962,-0.0088491,-0.008461,0.0,0 STARLINK-6304,1 56778U 23078M   23314.83334491 -.00846100  00000-0 -88491-2 0  9994,2 56778  69.9996 313.4589 0003391 263.6640 266.6962 15.66782017 25972,6746.256,91.908,370.408,365.833,0.0
56778.0,STARLINK-6304,PAYLOAD,2023-11-10 22:00:00,15.66626642,0.0003483,69.9996,313.2259,261.1452,19.086,-0.0089489,-0.00849903,0.0,0 STARLINK-6304,1 56778U 23078M   23314.91667824 -.00849903  00000-0 -89489-2 0  9994,2 56778  69.9996 313.2259 0003483 261.1452  19.0860 15.66626642  6045,6746.702,91.917,370.916,366.217,0.0
56778.0,STARLINK-6304,PAYLOAD,2023-11-11 04:00:00,15.66181941,0.0003453,69.9999,312.5265,263.1644,346.3935,-0.0099795,-0.00936995,0.0,0 STARLINK-6304,1 56778U 23078M   23315.16667824 -.00936995  00000-0 -99795-2 0  9991,2 56778  69.9999 312.5265 0003453 263.1644 346.3935 15.66181941 26037,6747.979,91.943,372.174,367.514,0.0
56778.0,STARLINK-6304,PAYLOAD,2023-11-11 14:00:01,15.65364576,0.0003329,69.9994,311.3622,269.5049,167.9725,-0.010337,-0.00938921,0.0,0 STARLINK-6304,1 56778U 23078M   23315.58334491 -.00938921  00000-0 -10337-1 0  9993,2 56778  69.9994 311.3622 0003329 269.5049 167.9725 15.65364576  5674,6750.327,91.991,374.44,369.945,0.0
56778.0,STARLINK-6304,PAYLOAD,2023-11-11 22:00:01,15.64673534,0.000329,69.9997,310.432,261.5864,253.4186,-0.0097315,-0.00853905,0.0,0 STARLINK-6304,1 56778U 23078M   23315.91668981 -.00853905  00000-0 -97315-2 0  9994,2 56778  69.9997 310.4320 0003290 261.5864 253.4186 15.64673534  5720,6752.315,92.032,376.401,371.958,0.0
